#dP2022 10 18  0  0  0.00000000      96 __u+U ITR00 EXT  IAC
## 2232 172800.00000000   900.00000000 59870 0.0000000000000
+  118   C06C07C08C09C10C11C12C13C14C16C19C20C21C22C23C24C25
+        C26C27C28C29C30C32C33C34C35C36C37C38C39C40C41C42C43
+        C44C45C46E01E02E03E04E05E07E08E09E10E11E12E13E14E15
+        E18E19E21E24E25E26E27E30E31E33E34E36G01G02G03G04G05
+        G06G07G08G09G10G11G12G13G14G15G16G17G18G19G20G21G22
+        G23G24G25G26G27G28G29G30G31G32J02J03J04R01R02R03R04
+        R05R07R08R09R11R12R13R14R15R17R18R19R20R21R22R24  0
++         9 10 11  8 10  8  8 10  8  8  8  8  8  8  9  8  8
++         8  9 10  9  8  9  7  8  8  9  9  9  8 11  9  7  8
++         8  8  8  8  8  9  8  8  8  8  8  8  7  8  8  9  8
++         7  8  8  8  8  8  8  9  8  9  8  8  7  8  7  7  8
++         8  8  7  7  7  8  8  8  7  8  8  8  7  8  8  7  8
++         7  8  8  8  7  7  8  7  8  8 10 10  9  7  8  8  8
++         8  9  8  9  8  8  8  9  9  9  9 10 10  7 10  8  0
%c M  cc GPS ccc cccc cccc cccc cccc ccccc ccccc ccccc ccccc
%c cc cc ccc ccc cccc cccc cccc cccc ccccc ccccc ccccc ccccc
%f  0.0000000  0.000000000  0.00000000000  0.000000000000000
%f  0.0000000  0.000000000  0.00000000000  0.000000000000000
%i    0    0    0    0      0      0      0      0         0
%i    0    0    0    0      0      0      0      0         0
/* IAC                                ULTRA-RAPID PREDICTION
/* S/V CLOCKS ARE ALIGNED TO GNSS TIME                      
/* G:C1WC2W R:C1PC2P E:C1XC5X C:C2IC6I J:C1CC2S             
/* PCV:IGS14_2218 OL/AL:FES2004  NONE     YN ORB:CoN CLK:CoN
*  2022 10 18 23 45  0.00000000
PC06 -18517.030152  29585.368814 -23819.755114    891.074245
PC07  -7030.555210  39456.259297 -12794.702467   -295.779655
PC08  -2854.258510  21788.249356  36002.684015    496.937552
PC09  -9492.078084  28199.304599 -29710.270780   -830.985101
PC10   -884.399550  41399.437143  -6059.886167     81.666100
PC11 -20011.921882  -1762.245957 -19281.439316   -343.479639
PC12  -4545.813916 -15240.623419 -22890.811262   -476.795474
PC13   6138.566324  26136.006462  32731.119552    110.495600
PC14 -15447.046953 -10701.900628  20656.058287    581.296537
PC16 -23002.250648  28941.126757 -20340.589799    127.670296
PC19  15777.065542   -529.210337 -22996.597530   -907.626840
PC20  13127.129272  18514.479193 -16218.949087    860.928248
PC21  -2313.216157 -27805.906716   -859.934530   -632.801079
PC22   9485.373656 -20166.794414 -16817.821941   -843.085942
PC23 -15016.456096  10025.169126 -21268.227626   -623.017595
PC24 -21068.612450 -16178.552933   8495.150112   -678.417430
PC25 -25821.279298  -2972.664757 -10132.767666     11.688903
PC26  -5957.349039 -18253.664687  20226.223264    -23.447451
PC27  -4148.180508  19479.155563  19533.383362     37.980395
PC28 -19586.171771  18929.859997   6050.737526     25.852974
PC29  23927.454633  -7648.621611  12155.879765     28.634614
PC30  13817.015447   9108.239310  22463.490938      0.566145
PC32   2452.091105  27778.608471    975.586991   -753.696980
PC33 -15820.833071    471.266776  22978.515336   -937.691049
PC34 -14809.251204  -8208.854920 -22192.751410     19.738923
PC35  19784.472822 -19107.466794  -4635.515163     48.091500
PC36  25897.600060   4032.193276   9622.185069   -753.455704
PC37   4185.070246  18178.894695 -20746.158144   -552.458820
PC38 -11786.566298  19912.506245  35260.166770     32.011650
PC39 -25389.850612  29750.393495 -15992.629016     -0.686862
PC40 -11958.755413  36588.898150 -16963.198309     -6.332150
PC41  -9761.606333  19722.781049  17204.107212   -186.706621
PC42 -12756.313063 -19522.077054  15373.223981   -499.512377
PC43 -23862.135113   6894.077064 -12743.011865     20.288040
PC44   3532.979884 -19770.557061 -19372.804603     85.875738
PC45  14666.038654 -10148.563245  21472.992878    -11.516564
PC46  22228.055031  15428.250047  -6915.903261     -7.221747
PE01  13418.266014  25773.409420  -5657.310268   -549.061808
PE02 -13526.080800 -25738.360071   5499.647278    331.575154
PE03  -3891.081242 -22801.002696  18466.015462   -611.136257
PE04  16324.443807   5194.851804 -24141.025055  -1139.602691
PE05  11102.549109 -27379.420432   1806.717835   -133.207412
PE07 -19400.230932  15979.053478  15627.364070   -714.378300
PE08 -16218.650457  -5055.272602  24232.091448   -617.672419
PE09  19307.510593 -15919.166963 -15825.079777   -698.073057
PE10  29486.815246  -1679.810224   2088.518986   -484.636834
PE11  27196.149197  -8143.090479  -8385.843589   1728.043511
PE12  26935.757353   4717.306178  11323.318566   -229.624151
PE13 -27557.204488   7690.063791   7586.081726    430.671364
PE14  19265.992167  -3948.625373  16869.105528     31.615470
PE15 -26820.985947  -4772.049586 -11564.042342    713.169674
PE18 -18257.194523  -7872.699409 -23459.177518   -845.573474
PE19   1700.896980  24309.952291 -16807.441051  -4229.816804
PE21  -1389.117812  21730.482930 -20047.143566   -764.235886
PE24  17169.705647  -3947.759866  23783.572036   -898.783641
PE25   1672.310375 -21549.164080  20232.388499   -590.533189
PE26 -11186.405711  15797.321766  22393.731189  -1743.093085
PE27 -16540.608467   5030.584176 -24015.991991   -418.620100
PE30 -21713.384491 -15211.125546 -13151.629626   -927.372160
PE31  21822.545222  14465.746574  13827.915761   -506.067973
PE33  10264.970283  14344.065169  23775.646728   -454.833624
PE34 -10464.587247 -14278.748375 -23723.353489    -10.158449
PE36  12138.357302 -15516.091838 -22090.329025   -447.905368
PG01 -11713.427329 -13330.209957 -20181.911109    265.365290
PG02   9865.383748  13729.225206  21099.364636   -641.781305
PG03 -11574.820517 -23780.840152  -3146.696113   -365.844976
PG04  -3943.603292 -18477.215896  18629.794903   -101.351196
PG05   3321.308477  22416.865218  13575.053598   -100.918313
PG06 -23540.571264   6891.533002  10343.062536    495.049622
PG07 -24093.077002  -6922.961913   9907.061192    297.311747
PG08   3636.594570 -23579.432334 -11315.914823    -89.524742
PG09 -13098.413345  -7947.739243  21616.167916   -281.311104
PG10  17054.165972   1900.309872 -20206.336629     -8.093485
PG11 -14491.644523  12265.041916  18562.181896    -27.522170
PG12   9538.138821  24627.111846  -3580.351579   -293.864240
PG13 -12315.510834  22742.785800  -5766.292554    408.571259
PG14 -17854.046326  -4025.369602 -19278.000597    -93.610147
PG15   -262.910180  23941.454890 -11620.535143    -19.770189
PG16   4040.466334 -19274.037185  17319.128489   -526.385018
PG17 -18362.371872   6327.401372 -17706.971184    670.011541
PG18  24729.656966   5717.639903   8063.946111      9.835176
PG19 -19327.550349  14846.599681 -10476.077517    225.631722
PG20  -7416.841096  14681.475427  20904.048385    477.263628
PG21  -2848.740052 -14704.460608 -21346.535927    157.779417
PG22  18126.258861 -17704.960881  -7237.412338    348.218543
PG23  19050.513398  12133.296318 -14090.347482     -1.063138
PG24   7891.125434  14827.163332 -20974.647727     94.540579
PG25  17043.945531  19419.031726   6451.399065    383.781654
PG26  11249.530604 -11205.833930  21173.516559    232.941871
PG27  12431.636466 -23215.999098   -776.424916    195.627589
PG28 -13733.522001   5689.342314 -21504.770931    327.213077
PG29  11056.560220   9986.578684  21940.016733   -560.685115
PG30 -26633.631332   1012.617602  -1496.234973   -537.196907
PG31  23260.342357  -7389.308645  10872.048928   -197.255522
PG32  18405.066085  -9664.037567 -16268.770507   -267.721103
PJ02 -20269.581208  21751.979112 -25371.820843     -7.571563
PJ03 -30234.986538  28487.204930  12377.056738     -3.113895
PJ04 -27126.975268  27616.131250  22767.494953    111.936760
PR01  -9060.804103  16807.864803  16903.477647     16.465376
PR02  -1949.368975  25462.523729   -634.970840    -23.036725
PR03   6399.046662  18315.929530 -16559.388117     65.720372
PR04  10729.558970   1137.236413 -23093.271193    161.672845
PR05   9405.399764 -16583.403990 -16927.174654    101.468393
PR07  -6739.953756 -17591.083256  17201.407629     42.790583
PR08 -10897.535222   -893.556163  23094.994475    -67.686283
PR09  -5504.466135 -15267.017203  19725.975018     82.779047
PR11 -21682.115972  -8533.293436 -10383.562865     24.157830
PR12 -11440.645552   5065.582702 -22197.076476     22.145158
PR13   4010.287148  14520.382888 -20596.212966    -27.939609
PR14  18813.277368  16147.444516  -5948.836556     24.199773
PR15  21410.325141   8029.502478  11324.873467     93.127185
PR17  10345.130321   6406.085677  22437.561551    570.309867
PR18  21850.750692  -3797.618172  12582.037878     47.760226
PR19  22869.733324 -10999.840263  -2647.129135   -207.793368
PR20   8793.315155 -13292.841877 -19894.003390    -80.472512
PR21 -11676.311007  -5509.423045 -21989.024692   -342.670215
PR22 -22387.762193   3239.735576 -11766.930567     14.554843
PR24  -7574.627662  13801.292735  20081.318937    121.159102
EOF
